ICEYE-X53               
1 64584U 25135BJ  26200.29190885  .00001362  00000+0  11170-3 0  9999
2 64584  97.7357 316.9313 0002099 164.5515 195.5773 15.00904181 58896
ICEYE-X65               
1 66300U 25248H   26200.08193135  .00001513  00000+0  11289-3 0  9999
2 66300  45.4069 326.4603 0005844 218.7512 141.2951 15.07942361 40337
ICEYE-X66               
1 66301U 25248J   26199.74543543  .00001764  00000+0  12485-3 0  9999
2 66301  45.4025 327.2735 0005527 213.3105 146.7430 15.09191418 40278
ICEYE-X67               
1 66302U 25248K   26199.63777366  .00001571  00000+0  11297-3 0  9996
2 66302  45.4061 327.4210 0007003 213.0395 147.0050 15.09172150 40272
ICEYE-X58               
1 66751U 25276CP  26200.17045576  .00001419  00000+0  74485-4 0  9998
2 66751  97.4194 272.9673 0002555 196.1169 163.9984 15.17318963 35267
ICEYE-X59               
1 66752U 25276CQ  26200.14627338  .00002555  00000+0  20582-3 0  9998
2 66752  97.4398 270.0783 0001202 132.7375 227.3951 15.00773791 35061
ICEYE-X60               
1 66753U 25276CR  26199.18014090  .00001767  00000+0  11064-3 0  9994
2 66753  97.4172 270.9282 0000987 277.9557  82.1561 15.10628567 35041
ICEYE-X61               
1 66754U 25276CS  26200.18522967  .00001532  00000+0  77285-4 0  9993
2 66754  97.4190 273.0789 0002440 197.1210 162.9943 15.18621713 35273
ICEYE-X62               
1 66755U 25276CT  26200.20093547  .00002469  00000+0  15508-3 0  9993
2 66755  97.4183 271.4071 0001074 214.2817 145.8344 15.10169478 35168
ICEYE-X63               
1 67372U 26004K   26199.94917640  .00000457  00000+0  55269-4 0  9990
2 67372  97.8015 198.0943 0005160  42.3079 317.8535 14.88352818 28020
ICEYE-X64               
1 67373U 26004L   26199.99879592  .00000587  00000+0  69848-4 0  9991
2 67373  97.8029 198.0608 0007032  43.7737 316.4036 14.87992437 28027
ICEYE-X71               
1 68494U 26067CG  26199.85781558  .00122204  00000+0  12031-1 0  9994
2 68494  97.7619 157.6065 0000237 328.3461  31.7743 14.91414800 16443
ICEYE-X73               
1 68496U 26067CJ  26199.88256901  .00001189  00000+0  12177-3 0  9999
2 68496  97.7624 157.7235 0001852 142.0029 218.1321 14.92357494 16456
ICEYE-X75               
1 68497U 26067CK  26199.88749136  .00000613  00000+0  65659-4 0  9992
2 68497  97.7608 157.6935 0001674 139.3970 220.7374 14.92177635 16455
ICEYE-X74               
1 68500U 26067CN  26200.12366343  .00001063  00000+0  11088-3 0  9998
2 68500  97.7634 157.8831 0000469 316.5388  43.5794 14.91803153 16489
ICEYE-X76               
1 68502U 26067CQ  26199.85136783  .00000414  00000+0  46647-4 0  9999
2 68502  97.7641 157.6328 0000424 271.1318  88.9852 14.91754953 16445
