{"fetched_at":"2026-07-19T17:31:37.739Z","source":"https://celestrak.org/NORAD/elements/gp.php?NAME=ICEYE&FORMAT=JSON","constellation":"iceye","records":[{"OBJECT_NAME":"ICEYE-X53","OBJECT_ID":"2025-135BJ","EPOCH":"2026-07-19T07:00:20.924640","CLASSIFICATION_TYPE":"U","MEAN_MOTION":15.00904181,"ECCENTRICITY":0.00020993,"INCLINATION":97.7357,"RA_OF_ASC_NODE":316.9313,"ARG_OF_PERICENTER":164.5515,"MEAN_ANOMALY":195.5773,"EPHEMERIS_TYPE":0,"NORAD_CAT_ID":64584,"ELEMENT_SET_NO":999,"REV_AT_EPOCH":5889,"BSTAR":0.00011169944,"MEAN_MOTION_DOT":0.00001362,"MEAN_MOTION_DDOT":0},{"OBJECT_NAME":"ICEYE-X65","OBJECT_ID":"2025-248H","EPOCH":"2026-07-19T01:57:58.868640","CLASSIFICATION_TYPE":"U","MEAN_MOTION":15.07942361,"ECCENTRICITY":0.0005844,"INCLINATION":45.4069,"RA_OF_ASC_NODE":326.4603,"ARG_OF_PERICENTER":218.7512,"MEAN_ANOMALY":141.2951,"EPHEMERIS_TYPE":0,"NORAD_CAT_ID":66300,"ELEMENT_SET_NO":999,"REV_AT_EPOCH":4033,"BSTAR":0.00011288835,"MEAN_MOTION_DOT":0.00001513,"MEAN_MOTION_DDOT":0},{"OBJECT_NAME":"ICEYE-X66","OBJECT_ID":"2025-248J","EPOCH":"2026-07-18T17:53:25.621152","CLASSIFICATION_TYPE":"U","MEAN_MOTION":15.09191418,"ECCENTRICITY":0.0005527,"INCLINATION":45.4025,"RA_OF_ASC_NODE":327.2735,"ARG_OF_PERICENTER":213.3105,"MEAN_ANOMALY":146.743,"EPHEMERIS_TYPE":0,"NORAD_CAT_ID":66301,"ELEMENT_SET_NO":999,"REV_AT_EPOCH":4027,"BSTAR":0.0001248536,"MEAN_MOTION_DOT":0.00001764,"MEAN_MOTION_DDOT":0},{"OBJECT_NAME":"ICEYE-X67","OBJECT_ID":"2025-248K","EPOCH":"2026-07-18T15:18:23.644224","CLASSIFICATION_TYPE":"U","MEAN_MOTION":15.0917215,"ECCENTRICITY":0.0007003,"INCLINATION":45.4061,"RA_OF_ASC_NODE":327.421,"ARG_OF_PERICENTER":213.0395,"MEAN_ANOMALY":147.005,"EPHEMERIS_TYPE":0,"NORAD_CAT_ID":66302,"ELEMENT_SET_NO":999,"REV_AT_EPOCH":4027,"BSTAR":0.00011297,"MEAN_MOTION_DOT":0.00001571,"MEAN_MOTION_DDOT":0},{"OBJECT_NAME":"ICEYE-X58","OBJECT_ID":"2025-276CP","EPOCH":"2026-07-19T04:05:27.377664","CLASSIFICATION_TYPE":"U","MEAN_MOTION":15.17318963,"ECCENTRICITY":0.00025552,"INCLINATION":97.4194,"RA_OF_ASC_NODE":272.9673,"ARG_OF_PERICENTER":196.1169,"MEAN_ANOMALY":163.9984,"EPHEMERIS_TYPE":0,"NORAD_CAT_ID":66751,"ELEMENT_SET_NO":999,"REV_AT_EPOCH":3526,"BSTAR":0.000074484984,"MEAN_MOTION_DOT":0.00001419,"MEAN_MOTION_DDOT":0},{"OBJECT_NAME":"ICEYE-X59","OBJECT_ID":"2025-276CQ","EPOCH":"2026-07-19T03:30:38.020032","CLASSIFICATION_TYPE":"U","MEAN_MOTION":15.00773791,"ECCENTRICITY":0.00012021,"INCLINATION":97.4398,"RA_OF_ASC_NODE":270.0783,"ARG_OF_PERICENTER":132.7375,"MEAN_ANOMALY":227.3951,"EPHEMERIS_TYPE":0,"NORAD_CAT_ID":66752,"ELEMENT_SET_NO":999,"REV_AT_EPOCH":3506,"BSTAR":0.00020582335,"MEAN_MOTION_DOT":0.00002555,"MEAN_MOTION_DDOT":0},{"OBJECT_NAME":"ICEYE-X60","OBJECT_ID":"2025-276CR","EPOCH":"2026-07-18T04:19:24.173760","CLASSIFICATION_TYPE":"U","MEAN_MOTION":15.10628567,"ECCENTRICITY":0.00009879,"INCLINATION":97.4172,"RA_OF_ASC_NODE":270.9282,"ARG_OF_PERICENTER":277.9557,"MEAN_ANOMALY":82.1561,"EPHEMERIS_TYPE":0,"NORAD_CAT_ID":66753,"ELEMENT_SET_NO":999,"REV_AT_EPOCH":3504,"BSTAR":0.00011064161,"MEAN_MOTION_DOT":0.00001767,"MEAN_MOTION_DDOT":0},{"OBJECT_NAME":"ICEYE-X61","OBJECT_ID":"2025-276CS","EPOCH":"2026-07-19T04:26:43.843488","CLASSIFICATION_TYPE":"U","MEAN_MOTION":15.18621713,"ECCENTRICITY":0.00024403,"INCLINATION":97.419,"RA_OF_ASC_NODE":273.0789,"ARG_OF_PERICENTER":197.121,"MEAN_ANOMALY":162.9943,"EPHEMERIS_TYPE":0,"NORAD_CAT_ID":66754,"ELEMENT_SET_NO":999,"REV_AT_EPOCH":3527,"BSTAR":0.000077285358,"MEAN_MOTION_DOT":0.00001532,"MEAN_MOTION_DDOT":0},{"OBJECT_NAME":"ICEYE-X62","OBJECT_ID":"2025-276CT","EPOCH":"2026-07-19T04:49:20.824608","CLASSIFICATION_TYPE":"U","MEAN_MOTION":15.10169478,"ECCENTRICITY":0.00010742,"INCLINATION":97.4183,"RA_OF_ASC_NODE":271.4071,"ARG_OF_PERICENTER":214.2817,"MEAN_ANOMALY":145.8344,"EPHEMERIS_TYPE":0,"NORAD_CAT_ID":66755,"ELEMENT_SET_NO":999,"REV_AT_EPOCH":3516,"BSTAR":0.00015507718,"MEAN_MOTION_DOT":0.00002469,"MEAN_MOTION_DDOT":0},{"OBJECT_NAME":"ICEYE-X63","OBJECT_ID":"2026-004K","EPOCH":"2026-07-18T22:46:48.840960","CLASSIFICATION_TYPE":"U","MEAN_MOTION":14.88352818,"ECCENTRICITY":0.00051605,"INCLINATION":97.8015,"RA_OF_ASC_NODE":198.0943,"ARG_OF_PERICENTER":42.3079,"MEAN_ANOMALY":317.8535,"EPHEMERIS_TYPE":0,"NORAD_CAT_ID":67372,"ELEMENT_SET_NO":999,"REV_AT_EPOCH":2802,"BSTAR":0.000055268825,"MEAN_MOTION_DOT":0.00000457,"MEAN_MOTION_DDOT":0},{"OBJECT_NAME":"ICEYE-X64","OBJECT_ID":"2026-004L","EPOCH":"2026-07-18T23:58:15.967488","CLASSIFICATION_TYPE":"U","MEAN_MOTION":14.87992437,"ECCENTRICITY":0.00070325,"INCLINATION":97.8029,"RA_OF_ASC_NODE":198.0608,"ARG_OF_PERICENTER":43.7737,"MEAN_ANOMALY":316.4036,"EPHEMERIS_TYPE":0,"NORAD_CAT_ID":67373,"ELEMENT_SET_NO":999,"REV_AT_EPOCH":2802,"BSTAR":0.000069847741,"MEAN_MOTION_DOT":0.00000587,"MEAN_MOTION_DDOT":0},{"OBJECT_NAME":"ICEYE-X71","OBJECT_ID":"2026-067CG","EPOCH":"2026-07-18T20:35:15.266112","CLASSIFICATION_TYPE":"U","MEAN_MOTION":14.914148,"ECCENTRICITY":0.00002371,"INCLINATION":97.7619,"RA_OF_ASC_NODE":157.6065,"ARG_OF_PERICENTER":328.3461,"MEAN_ANOMALY":31.7743,"EPHEMERIS_TYPE":0,"NORAD_CAT_ID":68494,"ELEMENT_SET_NO":999,"REV_AT_EPOCH":1644,"BSTAR":0.012030617,"MEAN_MOTION_DOT":0.00122204,"MEAN_MOTION_DDOT":0},{"OBJECT_NAME":"ICEYE-X73","OBJECT_ID":"2026-067CJ","EPOCH":"2026-07-18T21:10:53.962464","CLASSIFICATION_TYPE":"U","MEAN_MOTION":14.92357494,"ECCENTRICITY":0.00018521,"INCLINATION":97.7624,"RA_OF_ASC_NODE":157.7235,"ARG_OF_PERICENTER":142.0029,"MEAN_ANOMALY":218.1321,"EPHEMERIS_TYPE":0,"NORAD_CAT_ID":68496,"ELEMENT_SET_NO":999,"REV_AT_EPOCH":1645,"BSTAR":0.0001217733,"MEAN_MOTION_DOT":0.00001189,"MEAN_MOTION_DDOT":0},{"OBJECT_NAME":"ICEYE-X75","OBJECT_ID":"2026-067CK","EPOCH":"2026-07-18T21:17:59.253504","CLASSIFICATION_TYPE":"U","MEAN_MOTION":14.92177635,"ECCENTRICITY":0.00016746,"INCLINATION":97.7608,"RA_OF_ASC_NODE":157.6935,"ARG_OF_PERICENTER":139.397,"MEAN_ANOMALY":220.7374,"EPHEMERIS_TYPE":0,"NORAD_CAT_ID":68497,"ELEMENT_SET_NO":999,"REV_AT_EPOCH":1645,"BSTAR":0.000065658959,"MEAN_MOTION_DOT":0.00000613,"MEAN_MOTION_DDOT":0},{"OBJECT_NAME":"ICEYE-X74","OBJECT_ID":"2026-067CN","EPOCH":"2026-07-19T02:58:04.520352","CLASSIFICATION_TYPE":"U","MEAN_MOTION":14.91803153,"ECCENTRICITY":0.00004699,"INCLINATION":97.7634,"RA_OF_ASC_NODE":157.8831,"ARG_OF_PERICENTER":316.5388,"MEAN_ANOMALY":43.5794,"EPHEMERIS_TYPE":0,"NORAD_CAT_ID":68500,"ELEMENT_SET_NO":999,"REV_AT_EPOCH":1648,"BSTAR":0.0001108841,"MEAN_MOTION_DOT":0.00001063,"MEAN_MOTION_DDOT":0},{"OBJECT_NAME":"ICEYE-X76","OBJECT_ID":"2026-067CQ","EPOCH":"2026-07-18T20:25:58.180512","CLASSIFICATION_TYPE":"U","MEAN_MOTION":14.91754953,"ECCENTRICITY":0.00004249,"INCLINATION":97.7641,"RA_OF_ASC_NODE":157.6328,"ARG_OF_PERICENTER":271.1318,"MEAN_ANOMALY":88.9852,"EPHEMERIS_TYPE":0,"NORAD_CAT_ID":68502,"ELEMENT_SET_NO":999,"REV_AT_EPOCH":1644,"BSTAR":0.000046647144,"MEAN_MOTION_DOT":0.00000414,"MEAN_MOTION_DDOT":0}]}
